CCSDS_OMM_VERS = 2.0
CREATION_DATE  = 
ORIGINATOR     = 

OBJECT_NAME    = UNKNOWN
OBJECT_ID      = 
CENTER_NAME    = EARTH
REF_FRAME      = TEME
TIME_SYSTEM    = UTC
MEAN_ELEMENT_THEORY = SGP/SGP4

EPOCH          = 2025-12-08T09:35:46.006656
MEAN_MOTION    = 13.54533466
ECCENTRICITY   = .0108443
INCLINATION    = 99.4342
RA_OF_ASC_NODE = 36.4279
ARG_OF_PERICENTER = 318.1362
MEAN_ANOMALY   = 41.1520

EPHEMERIS_TYPE = 0
CLASSIFICATION_TYPE = U
NORAD_CAT_ID   = 82311
ELEMENT_SET_NO = 999
REV_AT_EPOCH   = 54973
BSTAR          = .15341E-2
MEAN_MOTION_DOT = .1046E-4
MEAN_MOTION_DDOT = 0

CCSDS_OMM_VERS = 2.0
CREATION_DATE  = 
ORIGINATOR     = 

OBJECT_NAME    = UNKNOWN
OBJECT_ID      = 
CENTER_NAME    = EARTH
REF_FRAME      = TEME
TIME_SYSTEM    = UTC
MEAN_ELEMENT_THEORY = SGP/SGP4

EPOCH          = 2025-12-08T08:25:07.656384
MEAN_MOTION    = 13.15605870
ECCENTRICITY   = .0456903
INCLINATION    = 66.9356
RA_OF_ASC_NODE = 203.3591
ARG_OF_PERICENTER = 168.6512
MEAN_ANOMALY   = 192.5268

EPHEMERIS_TYPE = 0
CLASSIFICATION_TYPE = U
NORAD_CAT_ID   = 82363
ELEMENT_SET_NO = 999
REV_AT_EPOCH   = 28968
BSTAR          = .2906E-3
MEAN_MOTION_DOT = .125E-5
MEAN_MOTION_DDOT = 0

CCSDS_OMM_VERS = 2.0
CREATION_DATE  = 
ORIGINATOR     = 

OBJECT_NAME    = UNKNOWN
OBJECT_ID      = 
CENTER_NAME    = EARTH
REF_FRAME      = TEME
TIME_SYSTEM    = UTC
MEAN_ELEMENT_THEORY = SGP/SGP4

EPOCH          = 2025-12-03T07:12:44.629920
MEAN_MOTION    = 13.98158581
ECCENTRICITY   = .0083273
INCLINATION    = 98.8991
RA_OF_ASC_NODE = 352.6578
ARG_OF_PERICENTER = 5.4067
MEAN_ANOMALY   = 354.7977

EPHEMERIS_TYPE = 0
CLASSIFICATION_TYPE = U
NORAD_CAT_ID   = 82369
ELEMENT_SET_NO = 999
REV_AT_EPOCH   = 55585
BSTAR          = .16954E-3
MEAN_MOTION_DOT = .206E-5
MEAN_MOTION_DDOT = 0

CCSDS_OMM_VERS = 2.0
CREATION_DATE  = 
ORIGINATOR     = 

OBJECT_NAME    = UNKNOWN
OBJECT_ID      = 
CENTER_NAME    = EARTH
REF_FRAME      = TEME
TIME_SYSTEM    = UTC
MEAN_ELEMENT_THEORY = SGP/SGP4

EPOCH          = 2025-12-08T13:50:03.041376
MEAN_MOTION    = 14.80433669
ECCENTRICITY   = .0007507
INCLINATION    = 98.3925
RA_OF_ASC_NODE = 207.1419
ARG_OF_PERICENTER = 146.5619
MEAN_ANOMALY   = 213.6067

EPHEMERIS_TYPE = 0
CLASSIFICATION_TYPE = U
NORAD_CAT_ID   = 82381
ELEMENT_SET_NO = 999
REV_AT_EPOCH   = 51019
BSTAR          = .38355E-2
MEAN_MOTION_DOT = .29389E-3
MEAN_MOTION_DDOT = 0

CCSDS_OMM_VERS = 2.0
CREATION_DATE  = 
ORIGINATOR     = 

OBJECT_NAME    = UNKNOWN
OBJECT_ID      = 
CENTER_NAME    = EARTH
REF_FRAME      = TEME
TIME_SYSTEM    = UTC
MEAN_ELEMENT_THEORY = SGP/SGP4

EPOCH          = 2025-12-08T12:15:30.577248
MEAN_MOTION    = 15.03406588
ECCENTRICITY   = .0007736
INCLINATION    = 86.6662
RA_OF_ASC_NODE = 157.4317
ARG_OF_PERICENTER = 163.7616
MEAN_ANOMALY   = 196.3868

EPHEMERIS_TYPE = 0
CLASSIFICATION_TYPE = U
NORAD_CAT_ID   = 82402
ELEMENT_SET_NO = 999
REV_AT_EPOCH   = 45383
BSTAR          = .70931E-3
MEAN_MOTION_DOT = .9681E-4
MEAN_MOTION_DDOT = 0

CCSDS_OMM_VERS = 2.0
CREATION_DATE  = 
ORIGINATOR     = 

OBJECT_NAME    = UNKNOWN
OBJECT_ID      = 
CENTER_NAME    = EARTH
REF_FRAME      = TEME
TIME_SYSTEM    = UTC
MEAN_ELEMENT_THEORY = SGP/SGP4

EPOCH          = 2025-12-05T07:44:44.191680
MEAN_MOTION    = 13.77237008
ECCENTRICITY   = .0056993
INCLINATION    = 66.6579
RA_OF_ASC_NODE = 356.8028
ARG_OF_PERICENTER = 41.8292
MEAN_ANOMALY   = 318.7113

EPHEMERIS_TYPE = 0
CLASSIFICATION_TYPE = U
NORAD_CAT_ID   = 82410
ELEMENT_SET_NO = 999
REV_AT_EPOCH   = 58571
BSTAR          = .28804E-3
MEAN_MOTION_DOT = .214E-5
MEAN_MOTION_DDOT = 0

CCSDS_OMM_VERS = 2.0
CREATION_DATE  = 
ORIGINATOR     = 

OBJECT_NAME    = UNKNOWN
OBJECT_ID      = 
CENTER_NAME    = EARTH
REF_FRAME      = TEME
TIME_SYSTEM    = UTC
MEAN_ELEMENT_THEORY = SGP/SGP4

EPOCH          = 2025-12-06T18:16:09.457248
MEAN_MOTION    = 14.58526247
ECCENTRICITY   = .0055065
INCLINATION    = 74.0066
RA_OF_ASC_NODE = 351.9883
ARG_OF_PERICENTER = 159.2335
MEAN_ANOMALY   = 201.1086

EPHEMERIS_TYPE = 0
CLASSIFICATION_TYPE = U
NORAD_CAT_ID   = 82432
ELEMENT_SET_NO = 999
REV_AT_EPOCH   = 48203
BSTAR          = .70992E-3
MEAN_MOTION_DOT = .334E-4
MEAN_MOTION_DDOT = 0

CCSDS_OMM_VERS = 2.0
CREATION_DATE  = 
ORIGINATOR     = 

OBJECT_NAME    = UNKNOWN
OBJECT_ID      = 
CENTER_NAME    = EARTH
REF_FRAME      = TEME
TIME_SYSTEM    = UTC
MEAN_ELEMENT_THEORY = SGP/SGP4

EPOCH          = 2025-12-08T15:03:17.294400
MEAN_MOTION    = 15.03641405
ECCENTRICITY   = .00068
INCLINATION    = 85.8736
RA_OF_ASC_NODE = 201.5267
ARG_OF_PERICENTER = 285.1011
MEAN_ANOMALY   = 74.9469

EPHEMERIS_TYPE = 0
CLASSIFICATION_TYPE = U
NORAD_CAT_ID   = 82448
ELEMENT_SET_NO = 999
REV_AT_EPOCH   = 43642
BSTAR          = .68749E-3
MEAN_MOTION_DOT = .9442E-4
MEAN_MOTION_DDOT = 0

CCSDS_OMM_VERS = 2.0
CREATION_DATE  = 
ORIGINATOR     = 

OBJECT_NAME    = UNKNOWN
OBJECT_ID      = 
CENTER_NAME    = EARTH
REF_FRAME      = TEME
TIME_SYSTEM    = UTC
MEAN_ELEMENT_THEORY = SGP/SGP4

EPOCH          = 2025-12-08T03:44:12.717600
MEAN_MOTION    = 12.39701749
ECCENTRICITY   = .0093315
INCLINATION    = 102.1772
RA_OF_ASC_NODE = 298.5281
ARG_OF_PERICENTER = 215.6877
MEAN_ANOMALY   = 143.7923

EPHEMERIS_TYPE = 0
CLASSIFICATION_TYPE = U
NORAD_CAT_ID   = 82453
ELEMENT_SET_NO = 999
REV_AT_EPOCH   = 54549
BSTAR          = .31854E-3
MEAN_MOTION_DOT = -.3E-7
MEAN_MOTION_DDOT = 0

CCSDS_OMM_VERS = 2.0
CREATION_DATE  = 
ORIGINATOR     = 

OBJECT_NAME    = UNKNOWN
OBJECT_ID      = 
CENTER_NAME    = EARTH
REF_FRAME      = TEME
TIME_SYSTEM    = UTC
MEAN_ELEMENT_THEORY = SGP/SGP4

EPOCH          = 2025-12-08T00:28:05.393568
MEAN_MOTION    = 13.55793213
ECCENTRICITY   = .0044597
INCLINATION    = 99.3565
RA_OF_ASC_NODE = 3.8883
ARG_OF_PERICENTER = 206.4584
MEAN_ANOMALY   = 153.4277

EPHEMERIS_TYPE = 0
CLASSIFICATION_TYPE = U
NORAD_CAT_ID   = 82484
ELEMENT_SET_NO = 999
REV_AT_EPOCH   = 58999
BSTAR          = .49883E-3
MEAN_MOTION_DOT = .308E-5
MEAN_MOTION_DDOT = 0

CCSDS_OMM_VERS = 2.0
CREATION_DATE  = 
ORIGINATOR     = 

OBJECT_NAME    = UNKNOWN
OBJECT_ID      = 
CENTER_NAME    = EARTH
REF_FRAME      = TEME
TIME_SYSTEM    = UTC
MEAN_ELEMENT_THEORY = SGP/SGP4

EPOCH          = 2025-12-07T13:09:08.985888
MEAN_MOTION    = 14.85704970
ECCENTRICITY   = .000272
INCLINATION    = 74.0079
RA_OF_ASC_NODE = 32.1643
ARG_OF_PERICENTER = 217.5328
MEAN_ANOMALY   = 142.5662

EPHEMERIS_TYPE = 0
CLASSIFICATION_TYPE = U
NORAD_CAT_ID   = 82494
ELEMENT_SET_NO = 999
REV_AT_EPOCH   = 8419
BSTAR          = .33143E-2
MEAN_MOTION_DOT = .28853E-3
MEAN_MOTION_DDOT = 0

CCSDS_OMM_VERS = 2.0
CREATION_DATE  = 
ORIGINATOR     = 

OBJECT_NAME    = UNKNOWN
OBJECT_ID      = 
CENTER_NAME    = EARTH
REF_FRAME      = TEME
TIME_SYSTEM    = UTC
MEAN_ELEMENT_THEORY = SGP/SGP4

EPOCH          = 2025-12-06T20:07:23.181600
MEAN_MOTION    = 14.18449293
ECCENTRICITY   = .0114034
INCLINATION    = 70.9689
RA_OF_ASC_NODE = 16.3411
ARG_OF_PERICENTER = 126.1243
MEAN_ANOMALY   = 235.0502

EPHEMERIS_TYPE = 0
CLASSIFICATION_TYPE = U
NORAD_CAT_ID   = 82500
ELEMENT_SET_NO = 999
REV_AT_EPOCH   = 61811
BSTAR          = .25598E-2
MEAN_MOTION_DOT = .5598E-4
MEAN_MOTION_DDOT = 0

